{
  "type": "FeatureCollection",
  "features": [
    {
      "type": "Feature",
      "properties": {
        "norad_id": 44334,
        "name": "EUTELSAT 7C",
        "group": "eutelsat",
        "lat": -0.03011450754633669,
        "lon": 175.27580498496735,
        "alt_km": 35779.30684481032,
        "timestamp": "2025-12-02T06:27:52.692523+00:00",
        "meta_object_name": "EUTELSAT 7C",
        "meta_object_id": "2019-034B",
        "meta_epoch": "2025-12-01T18:58:59.572128",
        "meta_mean_motion": 1.00269156,
        "meta_eccentricity": 0.0003347,
        "meta_inclination": 0.0765,
        "meta_ra_of_asc_node": 182.3559,
        "meta_arg_of_pericenter": 50.9471,
        "meta_mean_anomaly": 129.3458,
        "meta_ephemeris_type": 0,
        "meta_classification_type": "U",
        "meta_norad_cat_id": 44334,
        "meta_element_set_no": 999,
        "meta_rev_at_epoch": 485,
        "meta_bstar": 0,
        "meta_mean_motion_dot": 6.9e-07,
        "meta_mean_motion_ddot": 0,
        "tle_line1": "1 44334U 19034B   25335.79096727  .00000069  00000+0  00000+0 0  9993",
        "tle_line2": "2 44334   0.0765 182.3559 0003347  50.9471 129.3458  1.00269156  4853"
      },
      "geometry": {
        "type": "Point",
        "coordinates": [
          175.27580498496735,
          -0.03011450754633669
        ]
      }
    },
    {
      "type": "Feature",
      "properties": {
        "norad_id": 44624,
        "name": "EUTELSAT 5 WEST B",
        "group": "eutelsat",
        "lat": -0.03481690671985574,
        "lon": 163.28503299452387,
        "alt_km": 35785.3114997965,
        "timestamp": "2025-12-02T06:27:52.692535+00:00",
        "meta_object_name": "EUTELSAT 5 WEST B",
        "meta_object_id": "2019-067A",
        "meta_epoch": "2025-12-01T18:55:37.396128",
        "meta_mean_motion": 1.00272608,
        "meta_eccentricity": 0.0003618,
        "meta_inclination": 0.0736,
        "meta_ra_of_asc_node": 325.104,
        "meta_arg_of_pericenter": 286.2446,
        "meta_mean_anomaly": 98.4679,
        "meta_ephemeris_type": 0,
        "meta_classification_type": "U",
        "meta_norad_cat_id": 44624,
        "meta_element_set_no": 999,
        "meta_rev_at_epoch": 2245,
        "meta_bstar": 0,
        "meta_mean_motion_dot": -2e-07,
        "meta_mean_motion_ddot": 0,
        "tle_line1": "1 44624U 19067A   25335.78862727 -.00000020  00000+0  00000+0 0  9999",
        "tle_line2": "2 44624   0.0736 325.1040 0003618 286.2446  98.4679  1.00272608 22455"
      },
      "geometry": {
        "type": "Point",
        "coordinates": [
          163.28503299452387,
          -0.03481690671985574
        ]
      }
    },
    {
      "type": "Feature",
      "properties": {
        "norad_id": 45027,
        "name": "EUTELSAT KONNECT",
        "group": "eutelsat",
        "lat": 0.04731973655416513,
        "lon": 175.48240753254453,
        "alt_km": 35789.87514855682,
        "timestamp": "2025-12-02T06:27:52.692547+00:00",
        "meta_object_name": "EUTELSAT KONNECT",
        "meta_object_id": "2020-005B",
        "meta_epoch": "2025-12-01T18:59:07.061280",
        "meta_mean_motion": 1.0026766,
        "meta_eccentricity": 0.0001693,
        "meta_inclination": 0.0676,
        "meta_ra_of_asc_node": 98.9415,
        "meta_arg_of_pericenter": 188.8252,
        "meta_mean_anomaly": 75.1077,
        "meta_ephemeris_type": 0,
        "meta_classification_type": "U",
        "meta_norad_cat_id": 45027,
        "meta_element_set_no": 999,
        "meta_rev_at_epoch": 2234,
        "meta_bstar": 0,
        "meta_mean_motion_dot": 7e-07,
        "meta_mean_motion_ddot": 0,
        "tle_line1": "1 45027U 20005B   25335.79105395  .00000070  00000+0  00000+0 0  9997",
        "tle_line2": "2 45027   0.0676  98.9415 0001693 188.8252  75.1077  1.00267660 22344"
      },
      "geometry": {
        "type": "Point",
        "coordinates": [
          175.48240753254453,
          0.04731973655416513
        ]
      }
    },
    {
      "type": "Feature",
      "properties": {
        "norad_id": 49056,
        "name": "EUTELSAT QUANTUM",
        "group": "eutelsat",
        "lat": -0.025637179205219542,
        "lon": -144.00329202273954,
        "alt_km": 35775.487656709935,
        "timestamp": "2025-12-02T06:27:52.692559+00:00",
        "meta_object_name": "EUTELSAT QUANTUM",
        "meta_object_id": "2021-069B",
        "meta_epoch": "2025-12-01T19:10:35.961312",
        "meta_mean_motion": 1.00271983,
        "meta_eccentricity": 0.0003679,
        "meta_inclination": 0.0143,
        "meta_ra_of_asc_node": 359.0602,
        "meta_arg_of_pericenter": 264.7647,
        "meta_mean_anomaly": 142.448,
        "meta_ephemeris_type": 0,
        "meta_classification_type": "U",
        "meta_norad_cat_id": 49056,
        "meta_element_set_no": 999,
        "meta_rev_at_epoch": 1594,
        "meta_bstar": 0,
        "meta_mean_motion_dot": 1.47e-06,
        "meta_mean_motion_ddot": 0,
        "tle_line1": "1 49056U 21069B   25335.79902733  .00000147  00000+0  00000+0 0  9990",
        "tle_line2": "2 49056   0.0143 359.0602 0003679 264.7647 142.4480  1.00271983 15943"
      },
      "geometry": {
        "type": "Point",
        "coordinates": [
          -144.00329202273954,
          -0.025637179205219542
        ]
      }
    },
    {
      "type": "Feature",
      "properties": {
        "norad_id": 53765,
        "name": "EUTELSAT KONNECT VHTS",
        "group": "eutelsat",
        "lat": 0.036142744739800774,
        "lon": 170.98436815670024,
        "alt_km": 35777.92093454373,
        "timestamp": "2025-12-02T06:27:52.692570+00:00",
        "meta_object_name": "EUTELSAT KONNECT VHTS",
        "meta_object_id": "2022-110A",
        "meta_epoch": "2025-12-01T10:21:38.859264",
        "meta_mean_motion": 1.00269432,
        "meta_eccentricity": 0.00031139,
        "meta_inclination": 0.0567,
        "meta_ra_of_asc_node": 108.6936,
        "meta_arg_of_pericenter": 110.2921,
        "meta_mean_anomaly": 9.6774,
        "meta_ephemeris_type": 0,
        "meta_classification_type": "U",
        "meta_norad_cat_id": 53765,
        "meta_element_set_no": 999,
        "meta_rev_at_epoch": 484,
        "meta_bstar": 0,
        "meta_mean_motion_dot": 3.9e-07,
        "meta_mean_motion_ddot": 0,
        "tle_line1": "1 53765U 22110A   25335.43169976  .00000039  00000+0  00000+0 0  9995",
        "tle_line2": "2 53765   0.0567 108.6936 0003113 110.2921   9.6774  1.00269432  4849"
      },
      "geometry": {
        "type": "Point",
        "coordinates": [
          170.98436815670024,
          0.036142744739800774
        ]
      }
    },
    {
      "type": "Feature",
      "properties": {
        "norad_id": 54048,
        "name": "EUTELSAT HOTBIRD 13F",
        "group": "eutelsat",
        "lat": -0.06965221240301683,
        "lon": -178.68171275185696,
        "alt_km": 35794.34333989413,
        "timestamp": "2025-12-02T06:27:52.692582+00:00",
        "meta_object_name": "EUTELSAT HOTBIRD 13F",
        "meta_object_id": "2022-134A",
        "meta_epoch": "2025-12-01T15:35:14.925984",
        "meta_mean_motion": 1.00270959,
        "meta_eccentricity": 0.0001929,
        "meta_inclination": 0.0544,
        "meta_ra_of_asc_node": 288.7983,
        "meta_arg_of_pericenter": 67.722,
        "meta_mean_anomaly": 321.0618,
        "meta_ephemeris_type": 0,
        "meta_classification_type": "U",
        "meta_norad_cat_id": 54048,
        "meta_element_set_no": 999,
        "meta_rev_at_epoch": 1139,
        "meta_bstar": 0,
        "meta_mean_motion_dot": 1.09e-06,
        "meta_mean_motion_ddot": 0,
        "tle_line1": "1 54048U 22134A   25335.64947831  .00000109  00000+0  00000+0 0  9991",
        "tle_line2": "2 54048   0.0544 288.7983 0001929  67.7220 321.0618  1.00270959 11394"
      },
      "geometry": {
        "type": "Point",
        "coordinates": [
          -178.68171275185696,
          -0.06965221240301683
        ]
      }
    },
    {
      "type": "Feature",
      "properties": {
        "norad_id": 54225,
        "name": "EUTELSAT HOTBIRD 13G",
        "group": "eutelsat",
        "lat": -0.05241679087886952,
        "lon": -178.68612385649166,
        "alt_km": 35777.48016662228,
        "timestamp": "2025-12-02T06:27:52.692598+00:00",
        "meta_object_name": "EUTELSAT HOTBIRD 13G",
        "meta_object_id": "2022-146A",
        "meta_epoch": "2025-12-01T15:35:14.925984",
        "meta_mean_motion": 1.0027091,
        "meta_eccentricity": 0.0002093,
        "meta_inclination": 0.0473,
        "meta_ra_of_asc_node": 238.5153,
        "meta_arg_of_pericenter": 304.5524,
        "meta_mean_anomaly": 134.5091,
        "meta_ephemeris_type": 0,
        "meta_classification_type": "U",
        "meta_norad_cat_id": 54225,
        "meta_element_set_no": 999,
        "meta_rev_at_epoch": 548,
        "meta_bstar": 0,
        "meta_mean_motion_dot": 1.09e-06,
        "meta_mean_motion_ddot": 0,
        "tle_line1": "1 54225U 22146A   25335.64947831  .00000109  00000+0  00000+0 0  9991",
        "tle_line2": "2 54225   0.0473 238.5153 0002093 304.5524 134.5091  1.00270910  5488"
      },
      "geometry": {
        "type": "Point",
        "coordinates": [
          -178.68612385649166,
          -0.05241679087886952
        ]
      }
    }
  ]
}